[{"OBJECT_NAME":"HELIOS 1B","OBJECT_ID":"1999-064A","EPOCH":"2026-03-10T04:25:54.953184","MEAN_MOTION":14.877016,"ECCENTRICITY":0.00024532,"INCLINATION":98.169,"RA_OF_ASC_NODE":331.4427,"ARG_OF_PERICENTER":74.573,"MEAN_ANOMALY":285.5756,"EPHEMERIS_TYPE":0,"CLASSIFICATION_TYPE":"U","NORAD_CAT_ID":25977,"ELEMENT_SET_NO":999,"REV_AT_EPOCH":68533,"BSTAR":0.00025573969,"MEAN_MOTION_DOT":2.272e-5,"MEAN_MOTION_DDOT":0},{"OBJECT_NAME":"TERRA","OBJECT_ID":"1999-068A","EPOCH":"2026-03-10T06:19:57.116064","MEAN_MOTION":14.61015506,"ECCENTRICITY":0.00027406,"INCLINATION":97.9593,"RA_OF_ASC_NODE":122.6767,"ARG_OF_PERICENTER":150.0199,"MEAN_ANOMALY":274.907,"EPHEMERIS_TYPE":0,"CLASSIFICATION_TYPE":"U","NORAD_CAT_ID":25994,"ELEMENT_SET_NO":999,"REV_AT_EPOCH":39516,"BSTAR":0.00012285537,"MEAN_MOTION_DOT":5.58e-6,"MEAN_MOTION_DDOT":0},{"OBJECT_NAME":"SL-16 R/B","OBJECT_ID":"2000-006B","EPOCH":"2026-03-10T05:23:10.307904","MEAN_MOTION":14.15825739,"ECCENTRICITY":0.00167468,"INCLINATION":71.0009,"RA_OF_ASC_NODE":96.7132,"ARG_OF_PERICENTER":189.4618,"MEAN_ANOMALY":170.6193,"EPHEMERIS_TYPE":0,"CLASSIFICATION_TYPE":"U","NORAD_CAT_ID":26070,"ELEMENT_SET_NO":999,"REV_AT_EPOCH":34863,"BSTAR":-3.5200881e-5,"MEAN_MOTION_DOT":-1.17e-6,"MEAN_MOTION_DDOT":0},{"OBJECT_NAME":"TITAN 4B R/B","OBJECT_ID":"2000-047B","EPOCH":"2026-03-10T07:01:44.261760","MEAN_MOTION":15.09570701,"ECCENTRICITY":0.0038642,"INCLINATION":67.9902,"RA_OF_ASC_NODE":38.8141,"ARG_OF_PERICENTER":34.6957,"MEAN_ANOMALY":325.6701,"EPHEMERIS_TYPE":0,"CLASSIFICATION_TYPE":"U","NORAD_CAT_ID":26474,"ELEMENT_SET_NO":999,"REV_AT_EPOCH":39300,"BSTAR":0.00036317484,"MEAN_MOTION_DOT":5.817e-5,"MEAN_MOTION_DDOT":0},{"OBJECT_NAME":"ENVISAT","OBJECT_ID":"2002-009A","EPOCH":"2026-03-10T07:49:41.679840","MEAN_MOTION":14.39037331,"ECCENTRICITY":0.00013033,"INCLINATION":98.3729,"RA_OF_ASC_NODE":22.9083,"ARG_OF_PERICENTER":82.6327,"MEAN_ANOMALY":76.0853,"EPHEMERIS_TYPE":0,"CLASSIFICATION_TYPE":"U","NORAD_CAT_ID":27386,"ELEMENT_SET_NO":999,"REV_AT_EPOCH":25926,"BSTAR":7.4317513e-5,"MEAN_MOTION_DOT":1.87e-6,"MEAN_MOTION_DDOT":0},{"OBJECT_NAME":"IDEFIX & ARIANE 42P R/B","OBJECT_ID":"2002-021B","EPOCH":"2026-03-10T06:21:34.532928","MEAN_MOTION":14.31026828,"ECCENTRICITY":0.00116082,"INCLINATION":98.5868,"RA_OF_ASC_NODE":7.8644,"ARG_OF_PERICENTER":180.6061,"MEAN_ANOMALY":179.511,"EPHEMERIS_TYPE":0,"CLASSIFICATION_TYPE":"U","NORAD_CAT_ID":27422,"ELEMENT_SET_NO":999,"REV_AT_EPOCH":24410,"BSTAR":0.00015909961,"MEAN_MOTION_DOT":3.75e-6,"MEAN_MOTION_DDOT":0},{"OBJECT_NAME":"AQUA","OBJECT_ID":"2002-022A","EPOCH":"2026-03-10T05:48:21.184704","MEAN_MOTION":14.61978935,"ECCENTRICITY":5.605e-5,"INCLINATION":98.4176,"RA_OF_ASC_NODE":36.6168,"ARG_OF_PERICENTER":82.4708,"MEAN_ANOMALY":30.3304,"EPHEMERIS_TYPE":0,"CLASSIFICATION_TYPE":"U","NORAD_CAT_ID":27424,"ELEMENT_SET_NO":999,"REV_AT_EPOCH":26881,"BSTAR":0.00029098579,"MEAN_MOTION_DOT":1.409e-5,"MEAN_MOTION_DDOT":0},{"OBJECT_NAME":"CZ-4B R/B","OBJECT_ID":"2002-024C","EPOCH":"2026-03-10T03:16:03.163008","MEAN_MOTION":14.14547639,"ECCENTRICITY":0.00504624,"INCLINATION":98.8838,"RA_OF_ASC_NODE":122.5407,"ARG_OF_PERICENTER":22.9379,"MEAN_ANOMALY":1.352,"EPHEMERIS_TYPE":0,"CLASSIFICATION_TYPE":"U","NORAD_CAT_ID":27432,"ELEMENT_SET_NO":999,"REV_AT_EPOCH":22930,"BSTAR":4.23045e-5,"MEAN_MOTION_DOT":3.8e-7,"MEAN_MOTION_DDOT":0},{"OBJECT_NAME":"MIDORI II (ADEOS-II)","OBJECT_ID":"2002-056A","EPOCH":"2026-03-09T20:58:08.669280","MEAN_MOTION":14.29285373,"ECCENTRICITY":0.000157,"INCLINATION":98.7769,"RA_OF_ASC_NODE":27.3525,"ARG_OF_PERICENTER":42.2245,"MEAN_ANOMALY":317.9057,"EPHEMERIS_TYPE":0,"CLASSIFICATION_TYPE":"U","NORAD_CAT_ID":27597,"ELEMENT_SET_NO":999,"REV_AT_EPOCH":21032,"BSTAR":0.0001815516,"MEAN_MOTION_DOT":4.17e-6,"MEAN_MOTION_DDOT":0},{"OBJECT_NAME":"H-2A R/B","OBJECT_ID":"2002-056E","EPOCH":"2026-03-09T22:02:08.732832","MEAN_MOTION":14.33760927,"ECCENTRICITY":0.0070512,"INCLINATION":98.3202,"RA_OF_ASC_NODE":29.275,"ARG_OF_PERICENTER":160.0116,"MEAN_ANOMALY":268.6683,"EPHEMERIS_TYPE":0,"CLASSIFICATION_TYPE":"U","NORAD_CAT_ID":27601,"ELEMENT_SET_NO":999,"REV_AT_EPOCH":21414,"BSTAR":0.00013542,"MEAN_MOTION_DOT":3.45e-6,"MEAN_MOTION_DDOT":0},{"OBJECT_NAME":"CZ-4B R/B","OBJECT_ID":"2003-049C","EPOCH":"2026-03-10T00:03:30.033216","MEAN_MOTION":14.55020527,"ECCENTRICITY":0.00472703,"INCLINATION":98.688,"RA_OF_ASC_NODE":63.9194,"ARG_OF_PERICENTER":229.9345,"MEAN_ANOMALY":129.7701,"EPHEMERIS_TYPE":0,"CLASSIFICATION_TYPE":"U","NORAD_CAT_ID":28059,"ELEMENT_SET_NO":999,"REV_AT_EPOCH":18664,"BSTAR":0.0001227818,"MEAN_MOTION_DOT":4.85e-6,"MEAN_MOTION_DDOT":0},{"OBJECT_NAME":"CZ-2C R/B","OBJECT_ID":"2004-012C","EPOCH":"2026-03-10T02:53:58.478208","MEAN_MOTION":15.64563089,"ECCENTRICITY":0.00128695,"INCLINATION":97.7223,"RA_OF_ASC_NODE":134.4534,"ARG_OF_PERICENTER":307.3877,"MEAN_ANOMALY":52.6209,"EPHEMERIS_TYPE":0,"CLASSIFICATION_TYPE":"U","NORAD_CAT_ID":28222,"ELEMENT_SET_NO":999,"REV_AT_EPOCH":20434,"BSTAR":0.00063587919,"MEAN_MOTION_DOT":0.00061764,"MEAN_MOTION_DDOT":0},{"OBJECT_NAME":"SL-16 R/B","OBJECT_ID":"2004-021B","EPOCH":"2026-03-09T21:09:03.047328","MEAN_MOTION":14.14597913,"ECCENTRICITY":0.00040648,"INCLINATION":70.9995,"RA_OF_ASC_NODE":232.0903,"ARG_OF_PERICENTER":8.9977,"MEAN_ANOMALY":351.1217,"EPHEMERIS_TYPE":0,"CLASSIFICATION_TYPE":"U","NORAD_CAT_ID":28353,"ELEMENT_SET_NO":999,"REV_AT_EPOCH":12286,"BSTAR":-0.00010190568,"MEAN_MOTION_DOT":-2.43e-6,"MEAN_MOTION_DDOT":0},{"OBJECT_NAME":"CZ-4B R/B","OBJECT_ID":"2004-035C","EPOCH":"2026-03-10T02:31:59.569248","MEAN_MOTION":15.29073214,"ECCENTRICITY":0.00309757,"INCLINATION":97.3501,"RA_OF_ASC_NODE":103.3428,"ARG_OF_PERICENTER":330.033,"MEAN_ANOMALY":29.9136,"EPHEMERIS_TYPE":0,"CLASSIFICATION_TYPE":"U","NORAD_CAT_ID":28415,"ELEMENT_SET_NO":999,"REV_AT_EPOCH":17997,"BSTAR":0.00034465502,"MEAN_MOTION_DOT":9.794e-5,"MEAN_MOTION_DDOT":0},{"OBJECT_NAME":"CZ-2C R/B","OBJECT_ID":"2004-046B","EPOCH":"2026-03-10T06:09:54.446688","MEAN_MOTION":14.2699231,"ECCENTRICITY":0.01399056,"INCLINATION":98.1982,"RA_OF_ASC_NODE":344.2056,"ARG_OF_PERICENTER":152.7749,"MEAN_ANOMALY":208.0857,"EPHEMERIS_TYPE":0,"CLASSIFICATION_TYPE":"U","NORAD_CAT_ID":28480,"ELEMENT_SET_NO":999,"REV_AT_EPOCH":10858,"BSTAR":7.2018467e-5,"MEAN_MOTION_DOT":1.54e-6,"MEAN_MOTION_DDOT":0},{"OBJECT_NAME":"ARIANE 5 R/B","OBJECT_ID":"2004-049H","EPOCH":"2026-03-10T00:53:05.853984","MEAN_MOTION":14.85266546,"ECCENTRICITY":0.00839107,"INCLINATION":98.2628,"RA_OF_ASC_NODE":237.5069,"ARG_OF_PERICENTER":350.7967,"MEAN_ANOMALY":9.1704,"EPHEMERIS_TYPE":0,"CLASSIFICATION_TYPE":"U","NORAD_CAT_ID":28499,"ELEMENT_SET_NO":999,"REV_AT_EPOCH":14584,"BSTAR":0.00011593788,"MEAN_MOTION_DOT":9.94e-6,"MEAN_MOTION_DDOT":0},{"OBJECT_NAME":"CZ-2D R/B","OBJECT_ID":"2005-024B","EPOCH":"2026-03-10T00:43:18.931872","MEAN_MOTION":15.60183063,"ECCENTRICITY":0.00057854,"INCLINATION":97.3603,"RA_OF_ASC_NODE":84.1881,"ARG_OF_PERICENTER":45.9061,"MEAN_ANOMALY":314.2671,"EPHEMERIS_TYPE":0,"CLASSIFICATION_TYPE":"U","NORAD_CAT_ID":28738,"ELEMENT_SET_NO":999,"REV_AT_EPOCH":13983,"BSTAR":0.00057331686,"MEAN_MOTION_DOT":0.00046744,"MEAN_MOTION_DDOT":0}]
